TRANSPORTER-15 OBJECT K 
1 66675U 25276K   26068.76208861  .00012043  00000+0  57839-3 0  9996
2 66675  97.4243 143.9558 0005700   6.9635 353.1678 15.18978420 15326
IRIDE FM4               
1 66698U 25276AJ  26068.76071646  .00008403  00000+0  40963-3 0  9995
2 66698  97.4251 143.9634 0003872  14.8227 345.3120 15.18565498 15320
